{"fetched_at":"2026-07-13T18:16:58.106Z","source":"https://celestrak.org/NORAD/elements/gp.php?NAME=HULIANWANG&FORMAT=JSON","constellation":"guowang","records":[{"OBJECT_NAME":"HULIANWANG DIGUI-124","OBJECT_ID":"2025-295F","EPOCH":"2026-07-13T10:15:49.487040","CLASSIFICATION_TYPE":"U","MEAN_MOTION":13.29328973,"ECCENTRICITY":0.0001133,"INCLINATION":50.0003,"RA_OF_ASC_NODE":291.2309,"ARG_OF_PERICENTER":183.9332,"MEAN_ANOMALY":176.1531,"EPHEMERIS_TYPE":0,"NORAD_CAT_ID":67064,"ELEMENT_SET_NO":999,"REV_AT_EPOCH":2899,"BSTAR":0.000058633,"MEAN_MOTION_DOT":-9.7e-7,"MEAN_MOTION_DDOT":0},{"OBJECT_NAME":"HULIANWANG DIGUI-125","OBJECT_ID":"2025-295G","EPOCH":"2026-07-13T11:51:57.651264","CLASSIFICATION_TYPE":"U","MEAN_MOTION":13.29329608,"ECCENTRICITY":0.0001092,"INCLINATION":49.9997,"RA_OF_ASC_NODE":290.9015,"ARG_OF_PERICENTER":183.4165,"MEAN_ANOMALY":176.67,"EPHEMERIS_TYPE":0,"NORAD_CAT_ID":67065,"ELEMENT_SET_NO":999,"REV_AT_EPOCH":2900,"BSTAR":0.000065599,"MEAN_MOTION_DOT":-9.4e-7,"MEAN_MOTION_DDOT":0},{"OBJECT_NAME":"HULIANWANG DIGUI-126","OBJECT_ID":"2025-295H","EPOCH":"2026-07-13T11:39:51.804000","CLASSIFICATION_TYPE":"U","MEAN_MOTION":13.29322436,"ECCENTRICITY":0.0001124,"INCLINATION":49.9999,"RA_OF_ASC_NODE":290.8621,"ARG_OF_PERICENTER":180.2681,"MEAN_ANOMALY":179.819,"EPHEMERIS_TYPE":0,"NORAD_CAT_ID":67066,"ELEMENT_SET_NO":999,"REV_AT_EPOCH":2900,"BSTAR":0.000017851,"MEAN_MOTION_DOT":-0.00000116,"MEAN_MOTION_DDOT":0},{"OBJECT_NAME":"HULIANWANG DIGUI-127","OBJECT_ID":"2025-295J","EPOCH":"2026-07-13T06:03:00.783360","CLASSIFICATION_TYPE":"U","MEAN_MOTION":13.29330748,"ECCENTRICITY":0.0001107,"INCLINATION":50.0012,"RA_OF_ASC_NODE":291.6611,"ARG_OF_PERICENTER":181.4735,"MEAN_ANOMALY":178.6134,"EPHEMERIS_TYPE":0,"NORAD_CAT_ID":67067,"ELEMENT_SET_NO":999,"REV_AT_EPOCH":2897,"BSTAR":0.000089571,"MEAN_MOTION_DOT":-8.2e-7,"MEAN_MOTION_DDOT":0},{"OBJECT_NAME":"HULIANWANG DIGUI-128","OBJECT_ID":"2025-311A","EPOCH":"2026-07-13T11:59:35.132352","CLASSIFICATION_TYPE":"U","MEAN_MOTION":13.29323641,"ECCENTRICITY":0.0000944,"INCLINATION":50.0096,"RA_OF_ASC_NODE":21.1868,"ARG_OF_PERICENTER":68.576,"MEAN_ANOMALY":291.5213,"EPHEMERIS_TYPE":0,"NORAD_CAT_ID":67236,"ELEMENT_SET_NO":999,"REV_AT_EPOCH":2684,"BSTAR":0.000039551,"MEAN_MOTION_DOT":-0.00000106,"MEAN_MOTION_DDOT":0},{"OBJECT_NAME":"HULIANWANG DIGUI-129","OBJECT_ID":"2025-311B","EPOCH":"2026-07-13T12:11:30.810336","CLASSIFICATION_TYPE":"U","MEAN_MOTION":13.29324915,"ECCENTRICITY":0.0000888,"INCLINATION":50.0086,"RA_OF_ASC_NODE":21.2118,"ARG_OF_PERICENTER":69.1094,"MEAN_ANOMALY":290.9874,"EPHEMERIS_TYPE":0,"NORAD_CAT_ID":67237,"ELEMENT_SET_NO":999,"REV_AT_EPOCH":2684,"BSTAR":0.000057764,"MEAN_MOTION_DOT":-9.7e-7,"MEAN_MOTION_DDOT":0},{"OBJECT_NAME":"HULIANWANG DIGUI-130","OBJECT_ID":"2025-311C","EPOCH":"2026-07-13T11:35:30.668640","CLASSIFICATION_TYPE":"U","MEAN_MOTION":13.29323625,"ECCENTRICITY":0.0000982,"INCLINATION":50.0066,"RA_OF_ASC_NODE":21.7038,"ARG_OF_PERICENTER":66.9195,"MEAN_ANOMALY":293.178,"EPHEMERIS_TYPE":0,"NORAD_CAT_ID":67238,"ELEMENT_SET_NO":999,"REV_AT_EPOCH":2683,"BSTAR":0.000051379,"MEAN_MOTION_DOT":-0.000001,"MEAN_MOTION_DDOT":0},{"OBJECT_NAME":"HULIANWANG DIGUI-131","OBJECT_ID":"2025-311D","EPOCH":"2026-07-13T11:47:33.476352","CLASSIFICATION_TYPE":"U","MEAN_MOTION":13.2932335,"ECCENTRICITY":0.0001002,"INCLINATION":50.0064,"RA_OF_ASC_NODE":21.7394,"ARG_OF_PERICENTER":66.8468,"MEAN_ANOMALY":293.251,"EPHEMERIS_TYPE":0,"NORAD_CAT_ID":67239,"ELEMENT_SET_NO":999,"REV_AT_EPOCH":2683,"BSTAR":0.000046207,"MEAN_MOTION_DOT":-0.00000103,"MEAN_MOTION_DDOT":0},{"OBJECT_NAME":"HULIANWANG DIGUI-132","OBJECT_ID":"2025-311E","EPOCH":"2026-07-13T12:59:40.987104","CLASSIFICATION_TYPE":"U","MEAN_MOTION":13.29324199,"ECCENTRICITY":0.0000946,"INCLINATION":50.0076,"RA_OF_ASC_NODE":21.3606,"ARG_OF_PERICENTER":64.7126,"MEAN_ANOMALY":295.3844,"EPHEMERIS_TYPE":0,"NORAD_CAT_ID":67240,"ELEMENT_SET_NO":999,"REV_AT_EPOCH":2684,"BSTAR":0.000045098,"MEAN_MOTION_DOT":-0.00000103,"MEAN_MOTION_DDOT":0},{"OBJECT_NAME":"HULIANWANG DIGUI-133","OBJECT_ID":"2025-311F","EPOCH":"2026-07-13T12:35:39.764256","CLASSIFICATION_TYPE":"U","MEAN_MOTION":13.29324082,"ECCENTRICITY":0.0000925,"INCLINATION":50.0118,"RA_OF_ASC_NODE":21.3481,"ARG_OF_PERICENTER":67.127,"MEAN_ANOMALY":292.97,"EPHEMERIS_TYPE":0,"NORAD_CAT_ID":67241,"ELEMENT_SET_NO":999,"REV_AT_EPOCH":2684,"BSTAR":0.000039995,"MEAN_MOTION_DOT":-0.00000106,"MEAN_MOTION_DDOT":0},{"OBJECT_NAME":"HULIANWANG DIGUI-134","OBJECT_ID":"2025-311G","EPOCH":"2026-07-13T12:47:38.810112","CLASSIFICATION_TYPE":"U","MEAN_MOTION":13.29323787,"ECCENTRICITY":0.0000952,"INCLINATION":50.0046,"RA_OF_ASC_NODE":21.2764,"ARG_OF_PERICENTER":66.3105,"MEAN_ANOMALY":293.7867,"EPHEMERIS_TYPE":0,"NORAD_CAT_ID":67242,"ELEMENT_SET_NO":999,"REV_AT_EPOCH":2684,"BSTAR":0.000016184,"MEAN_MOTION_DOT":-0.00000117,"MEAN_MOTION_DDOT":0},{"OBJECT_NAME":"HULIANWANG DIGUI-135","OBJECT_ID":"2025-311H","EPOCH":"2026-07-13T11:23:27.098016","CLASSIFICATION_TYPE":"U","MEAN_MOTION":13.29323612,"ECCENTRICITY":0.000097,"INCLINATION":50.0036,"RA_OF_ASC_NODE":21.6086,"ARG_OF_PERICENTER":65.8311,"MEAN_ANOMALY":294.2662,"EPHEMERIS_TYPE":0,"NORAD_CAT_ID":67243,"ELEMENT_SET_NO":999,"REV_AT_EPOCH":2683,"BSTAR":0.000029743,"MEAN_MOTION_DOT":-0.0000011,"MEAN_MOTION_DDOT":0},{"OBJECT_NAME":"HULIANWANG DIGUI-136","OBJECT_ID":"2025-311J","EPOCH":"2026-07-13T12:23:34.374048","CLASSIFICATION_TYPE":"U","MEAN_MOTION":13.29324467,"ECCENTRICITY":0.0000872,"INCLINATION":50.0105,"RA_OF_ASC_NODE":21.2852,"ARG_OF_PERICENTER":69.3527,"MEAN_ANOMALY":290.7439,"EPHEMERIS_TYPE":0,"NORAD_CAT_ID":67244,"ELEMENT_SET_NO":999,"REV_AT_EPOCH":2684,"BSTAR":0.000039433,"MEAN_MOTION_DOT":-0.00000106,"MEAN_MOTION_DDOT":0},{"OBJECT_NAME":"HULIANWANG DIGUI-137","OBJECT_ID":"2026-007A","EPOCH":"2026-07-13T11:14:54.170592","CLASSIFICATION_TYPE":"U","MEAN_MOTION":13.29326963,"ECCENTRICITY":0.0000901,"INCLINATION":50.0096,"RA_OF_ASC_NODE":351.5986,"ARG_OF_PERICENTER":108.1869,"MEAN_ANOMALY":251.9101,"EPHEMERIS_TYPE":0,"NORAD_CAT_ID":67435,"ELEMENT_SET_NO":999,"REV_AT_EPOCH":2428,"BSTAR":0.000030556,"MEAN_MOTION_DOT":-0.0000011,"MEAN_MOTION_DDOT":0},{"OBJECT_NAME":"HULIANWANG DIGUI-138","OBJECT_ID":"2026-007B","EPOCH":"2026-07-13T11:39:00.192096","CLASSIFICATION_TYPE":"U","MEAN_MOTION":13.29325308,"ECCENTRICITY":0.0000901,"INCLINATION":50.0075,"RA_OF_ASC_NODE":351.6545,"ARG_OF_PERICENTER":109.9221,"MEAN_ANOMALY":250.1748,"EPHEMERIS_TYPE":0,"NORAD_CAT_ID":67436,"ELEMENT_SET_NO":999,"REV_AT_EPOCH":2428,"BSTAR":0.000031733,"MEAN_MOTION_DOT":-0.00000109,"MEAN_MOTION_DDOT":0},{"OBJECT_NAME":"HULIANWANG DIGUI-139","OBJECT_ID":"2026-007C","EPOCH":"2026-07-13T11:26:44.102976","CLASSIFICATION_TYPE":"U","MEAN_MOTION":13.29328255,"ECCENTRICITY":0.0000901,"INCLINATION":50.0049,"RA_OF_ASC_NODE":351.5671,"ARG_OF_PERICENTER":97.3199,"MEAN_ANOMALY":262.7775,"EPHEMERIS_TYPE":0,"NORAD_CAT_ID":67437,"ELEMENT_SET_NO":999,"REV_AT_EPOCH":2428,"BSTAR":0.000018865,"MEAN_MOTION_DOT":-0.00000115,"MEAN_MOTION_DDOT":0}]}
