HULIANWANG DIGUI-124    
1 67064U 25295F   26194.42765610 -.00000097  00000+0  58633-4 0  9994
2 67064  50.0003 291.2309 0001133 183.9332 176.1531 13.29328973 28995
HULIANWANG DIGUI-125    
1 67065U 25295G   26194.49441726 -.00000094  00000+0  65599-4 0  9997
2 67065  49.9997 290.9015 0001092 183.4165 176.6700 13.29329608 29000
HULIANWANG DIGUI-126    
1 67066U 25295H   26194.48601625 -.00000116  00000+0  17851-4 0  9996
2 67066  49.9999 290.8621 0001124 180.2681 179.8190 13.29322436 29009
HULIANWANG DIGUI-127    
1 67067U 25295J   26194.25209240 -.00000082  00000+0  89571-4 0  9999
2 67067  50.0012 291.6611 0001107 181.4735 178.6134 13.29330748 28976
HULIANWANG DIGUI-128    
1 67236U 25311A   26194.49971218 -.00000106  00000+0  39551-4 0  9993
2 67236  50.0096  21.1868 0000944  68.5760 291.5213 13.29323641 26848
HULIANWANG DIGUI-129    
1 67237U 25311B   26194.50799549 -.00000097  00000+0  57764-4 0  9996
2 67237  50.0086  21.2118 0000888  69.1094 290.9874 13.29324915 26842
HULIANWANG DIGUI-130    
1 67238U 25311C   26194.48299385 -.00000100  00000+0  51379-4 0  9998
2 67238  50.0066  21.7038 0000982  66.9195 293.1780 13.29323625 26836
HULIANWANG DIGUI-131    
1 67239U 25311D   26194.49135968 -.00000103  00000+0  46207-4 0  9993
2 67239  50.0064  21.7394 0001002  66.8468 293.2510 13.29323350 26833
HULIANWANG DIGUI-132    
1 67240U 25311E   26194.54144661 -.00000103  00000+0  45098-4 0  9998
2 67240  50.0076  21.3606 0000946  64.7126 295.3844 13.29324199 26840
HULIANWANG DIGUI-133    
1 67241U 25311F   26194.52476579 -.00000106  00000+0  39995-4 0  9995
2 67241  50.0118  21.3481 0000925  67.1270 292.9700 13.29324082 26848
HULIANWANG DIGUI-134    
1 67242U 25311G   26194.53308808 -.00000117  00000+0  16184-4 0  9993
2 67242  50.0046  21.2764 0000952  66.3105 293.7867 13.29323787 26844
HULIANWANG DIGUI-135    
1 67243U 25311H   26194.47461919 -.00000110  00000+0  29743-4 0  9998
2 67243  50.0036  21.6086 0000970  65.8311 294.2662 13.29323612 26833
HULIANWANG DIGUI-136    
1 67244U 25311J   26194.51637007 -.00000106  00000+0  39433-4 0  9999
2 67244  50.0105  21.2852 0000872  69.3527 290.7439 13.29324467 26840
HULIANWANG DIGUI-137    
1 67435U 26007A   26194.46868253 -.00000110  00000+0  30556-4 0  9999
2 67435  50.0096 351.5986 0000901 108.1869 251.9101 13.29326963 24286
HULIANWANG DIGUI-138    
1 67436U 26007B   26194.48541889 -.00000109  00000+0  31733-4 0  9991
2 67436  50.0075 351.6545 0000901 109.9221 250.1748 13.29325308 24287
HULIANWANG DIGUI-139    
1 67437U 26007C   26194.47689934 -.00000115  00000+0  18865-4 0  9993
2 67437  50.0049 351.5671 0000901  97.3199 262.7775 13.29328255 24285
